{
    "links": {
        "self": "http://www.neowsapp.com/rest/v1/neo/3475241?api_key=iIulBulltgU6a56xZRHN4H3l9WmuAYTsLGpBGhQ2"
    },
    "id": "3475241",
    "neo_reference_id": "3475241",
    "name": "(2009 VC1)",
    "designation": "2009 VC1",
    "nasa_jpl_url": "http://ssd.jpl.nasa.gov/sbdb.cgi?sstr=3475241",
    "absolute_magnitude_h": 27.0,
    "estimated_diameter": {
        "kilometers": {
            "estimated_diameter_min": 0.0105816886,
            "estimated_diameter_max": 0.023661375
        },
        "meters": {
            "estimated_diameter_min": 10.5816885933,
            "estimated_diameter_max": 23.6613750114
        },
        "miles": {
            "estimated_diameter_min": 0.0065751544,
            "estimated_diameter_max": 0.0147024923
        },
        "feet": {
            "estimated_diameter_min": 34.7168272045,
            "estimated_diameter_max": 77.6291855923
        }
    },
    "is_potentially_hazardous_asteroid": false,
    "close_approach_data": [
        {
            "close_approach_date": "2009-11-18",
            "close_approach_date_full": "2009-Nov-18 17:43",
            "epoch_date_close_approach": 1258566180000,
            "relative_velocity": {
                "kilometers_per_second": "11.1287282863",
                "kilometers_per_hour": "40063.421830765",
                "miles_per_hour": "24893.8523036773"
            },
            "miss_distance": {
                "astronomical": "0.0153189728",
                "lunar": "5.9590804192",
                "kilometers": "2291685.701467936",
                "miles": "1423987.4637160768"
            },
            "orbiting_body": "Earth"
        },
        {
            "close_approach_date": "2082-10-23",
            "close_approach_date_full": "2082-Oct-23 12:03",
            "epoch_date_close_approach": 3559982580000,
            "relative_velocity": {
                "kilometers_per_second": "14.9595570953",
                "kilometers_per_hour": "53854.4055429079",
                "miles_per_hour": "33463.0332663696"
            },
            "miss_distance": {
                "astronomical": "0.0930466462",
                "lunar": "36.1951453718",
                "kilometers": "13919580.082163594",
                "miles": "8649225.9931178372"
            },
            "orbiting_body": "Mars"
        },
        {
            "close_approach_date": "2083-03-01",
            "close_approach_date_full": "2083-Mar-01 13:22",
            "epoch_date_close_approach": 3571132920000,
            "relative_velocity": {
                "kilometers_per_second": "12.1077801507",
                "kilometers_per_hour": "43588.0085425495",
                "miles_per_hour": "27083.8934191192"
            },
            "miss_distance": {
                "astronomical": "0.0860059983",
                "lunar": "33.4563333387",
                "kilometers": "12866314.152903621",
                "miles": "7994756.8928111298"
            },
            "orbiting_body": "Earth"
        }
    ],
    "orbital_data": {
        "orbit_id": "9",
        "orbit_determination_date": "2017-04-06 08:59:16",
        "first_observation_date": "2009-11-09",
        "last_observation_date": "2009-11-18",
        "data_arc_in_days": 9,
        "observations_used": 23,
        "orbit_uncertainty": "8",
        "minimum_orbit_intersection": ".00809912",
        "jupiter_tisserand_invariant": "3.874",
        "epoch_osculation": "2455146.5",
        "eccentricity": ".5147994877862848",
        "semi_major_axis": "1.817052468350307",
        "inclination": "4.157776002885322",
        "ascending_node_longitude": "231.8454495534746",
        "orbital_period": "894.6427128745117",
        "perihelion_distance": ".8816347883627643",
        "perihelion_argument": "233.6386436845195",
        "aphelion_distance": "2.752470148337849",
        "perihelion_time": "2455190.134009925801",
        "mean_anomaly": "342.4418805996672",
        "mean_motion": ".4023952744703079",
        "equinox": "J2000",
        "orbit_class": {
            "orbit_class_type": "APO",
            "orbit_class_description": "Near-Earth asteroid orbits which cross the Earth’s orbit similar to that of 1862 Apollo",
            "orbit_class_range": "a (semi-major axis) > 1.0 AU; q (perihelion) < 1.017 AU"
        }
    },
    "is_sentry_object": false
}